start=new Date('2023-05-04T00:00:00.000Z').valueOf();
sats=[{"MEAN_ANOMALY":"273.5850","EPHEMERIS_TYPE":"0","COUNTRY_CODE":"US","TIME_SYSTEM":"UTC","SEMIMAJOR_AXIS":"6925.238","LAUNCH_DATE":"2020-06-13","REF_FRAME":"TEME","ARG_OF_PERICENTER":"86.5318","TLE_LINE1":"1 45770U 20038AS  23123.49526608  .00008361  00000-0  57899-3 0  9996","PERIAPSIS":"546.019","TLE_LINE2":"2 45770  53.0534 190.7215 0001566  86.5318 273.5850 15.06435932159811","INCLINATION":"53.0534","NORAD_CAT_ID":"45770","ECCENTRICITY":"0.00015660","MEAN_MOTION_DDOT":"0.0000000000000","GP_ID":"231163652","PERIOD":"95.590","FILE":"3899966","RCS_SIZE":"LARGE","SITE":"AFETR","DECAY_DATE":null,"CLASSIFICATION_TYPE":"U","EPOCH":"2023-05-03T11:53:10.989312","APOAPSIS":"548.188","ELEMENT_SET_NO":"999","MEAN_MOTION_DOT":"0.00008361","REV_AT_EPOCH":"15981","MEAN_ELEMENT_THEORY":"SGP4","RA_OF_ASC_NODE":"190.7215","OBJECT_TYPE":"PAYLOAD","MEAN_MOTION":"15.06435932","CENTER_NAME":"EARTH","BSTAR":"0.00057899000000","OBJECT_NAME":"STARLINK-1462","OBJECT_ID":"2020-038AS"},{"INCLINATION":"53.0541","NORAD_CAT_ID":"45771","ECCENTRICITY":"0.00010790","MEAN_MOTION_DDOT":"0.0000000000000","GP_ID":"231163885","FILE":"3899966","PERIOD":"95.590","RCS_SIZE":"LARGE","SITE":"AFETR","EPOCH":"2023-05-03T10:08:23.282016","DECAY_DATE":null,"CLASSIFICATION_TYPE":"U","PERIAPSIS":"546.345","TLE_LINE2":"2 45771  53.0541 191.0467 0001079 103.9680 256.1429 15.06439638159803","SEMIMAJOR_AXIS":"6925.227","LAUNCH_DATE":"2020-06-13","REF_FRAME":"TEME","ARG_OF_PERICENTER":"103.9680","TLE_LINE1":"1 45771U 20038AT  23123.42249169  .00014086  00000-0  96160-3 0  9999","MEAN_ANOMALY":"256.1429","EPHEMERIS_TYPE":"0","COUNTRY_CODE":"US","TIME_SYSTEM":"UTC","OBJECT_NAME":"STARLINK-1463","OBJECT_ID":"2020-038AT","MEAN_MOTION":"15.06439638","CENTER_NAME":"EARTH","BSTAR":"0.00096160000000","MEAN_MOTION_DOT":"0.00014086","MEAN_ELEMENT_THEORY":"SGP4","REV_AT_EPOCH":"15980","RA_OF_ASC_NODE":"191.0467","OBJECT_TYPE":"PAYLOAD","APOAPSIS":"547.839","ELEMENT_SET_NO":"999"},{"ELEMENT_SET_NO":"999","APOAPSIS":"547.990","OBJECT_TYPE":"PAYLOAD","RA_OF_ASC_NODE":"190.1999","MEAN_ELEMENT_THEORY":"SGP4","REV_AT_EPOCH":"15984","MEAN_MOTION_DOT":"0.00014729","CENTER_NAME":"EARTH","MEAN_MOTION":"15.06442676","BSTAR":"0.00100450000000","OBJECT_NAME":"STARLINK-1470","OBJECT_ID":"2020-038AU","TIME_SYSTEM":"UTC","EPHEMERIS_TYPE":"0","MEAN_ANOMALY":"278.2418","COUNTRY_CODE":"US","REF_FRAME":"TEME","TLE_LINE1":"1 45772U 20038AU  23123.61046887  .00014729  00000-0  10045-2 0  9994","ARG_OF_PERICENTER":"81.8719","SEMIMAJOR_AXIS":"6925.218","LAUNCH_DATE":"2020-06-13","TLE_LINE2":"2 45772  53.0537 190.1999 0001310  81.8719 278.2418 15.06442676159847","PERIAPSIS":"546.176","FILE":"3900281","GP_ID":"231195932","PERIOD":"95.589","MEAN_MOTION_DDOT":"0.0000000000000","EPOCH":"2023-05-03T14:39:04.510368","DECAY_DATE":null,"CLASSIFICATION_TYPE":"U","RCS_SIZE":"LARGE","SITE":"AFETR","NORAD_CAT_ID":"45772","INCLINATION":"53.0537","ECCENTRICITY":"0.00013100"},{"BSTAR":"0.00079175000000","MEAN_MOTION":"15.06445109","CENTER_NAME":"EARTH","OBJECT_ID":"2020-038AV","OBJECT_NAME":"STARLINK-1482","APOAPSIS":"548.059","ELEMENT_SET_NO":"999","MEAN_MOTION_DOT":"0.00011545","REV_AT_EPOCH":"15984","RA_OF_ASC_NODE":"190.2381","MEAN_ELEMENT_THEORY":"SGP4","OBJECT_TYPE":"PAYLOAD","PERIAPSIS":"546.091","TLE_LINE2":"2 45773  53.0531 190.2381 0001421  76.8786 283.2361 15.06445109159846","ECCENTRICITY":"0.00014210","INCLINATION":"53.0531","NORAD_CAT_ID":"45773","RCS_SIZE":"LARGE","SITE":"AFETR","DECAY_DATE":null,"CLASSIFICATION_TYPE":"U","EPOCH":"2023-05-03T14:28:27.473664","MEAN_MOTION_DDOT":"0.0000000000000","GP_ID":"231195682","PERIOD":"95.589","FILE":"3900281","COUNTRY_CODE":"US","EPHEMERIS_TYPE":"0","MEAN_ANOMALY":"283.2361","TIME_SYSTEM":"UTC","LAUNCH_DATE":"2020-06-13","SEMIMAJOR_AXIS":"6925.210","ARG_OF_PERICENTER":"76.8786","TLE_LINE1":"1 45773U 20038AV  23123.60309576  .00011545  00000-0  79175-3 0  9994","REF_FRAME":"TEME"},{"TLE_LINE2":"2 45774  53.0521 190.6632 0001315  92.1970 267.9169 15.06446513160945","PERIAPSIS":"546.160","MEAN_MOTION_DDOT":"0.0000000000000","GP_ID":"231172681","PERIOD":"95.589","FILE":"3900128","SITE":"AFETR","RCS_SIZE":"LARGE","DECAY_DATE":null,"CLASSIFICATION_TYPE":"U","EPOCH":"2023-05-03T12:10:27.589728","INCLINATION":"53.0521","NORAD_CAT_ID":"45774","ECCENTRICITY":"0.00013150","TIME_SYSTEM":"UTC","EPHEMERIS_TYPE":"0","MEAN_ANOMALY":"267.9169","COUNTRY_CODE":"US","REF_FRAME":"TEME","ARG_OF_PERICENTER":"92.1970","TLE_LINE1":"1 45774U 20038AW  23123.50726377  .00012422  00000-0  85030-3 0  9998","SEMIMAJOR_AXIS":"6925.206","LAUNCH_DATE":"2020-06-13","MEAN_MOTION":"15.06446513","CENTER_NAME":"EARTH","BSTAR":"0.00085030000000","OBJECT_NAME":"STARLINK-1485","OBJECT_ID":"2020-038AW","ELEMENT_SET_NO":"999","APOAPSIS":"547.982","OBJECT_TYPE":"PAYLOAD","MEAN_MOTION_DOT":"0.00012422","MEAN_ELEMENT_THEORY":"SGP4","RA_OF_ASC_NODE":"190.6632","REV_AT_EPOCH":"16094"},{"RCS_SIZE":"LARGE","SITE":"AFETR","EPOCH":"2023-05-03T13:15:03.107520","DECAY_DATE":null,"CLASSIFICATION_TYPE":"U","MEAN_MOTION_DDOT":"0.0000000000000","GP_ID":"231163386","PERIOD":"94.841","FILE":"3899966","ECCENTRICITY":"0.00040320","INCLINATION":"53.0514","NORAD_CAT_ID":"45775","TLE_LINE2":"2 45775  53.0514 183.9411 0004032 342.7099  17.3757 15.18326485159938","PERIAPSIS":"508.122","ARG_OF_PERICENTER":"342.7099","TLE_LINE1":"1 45775U 20038AX  23123.55211930  .00026836  00000-0  13019-2 0  9999","REF_FRAME":"TEME","LAUNCH_DATE":"2020-06-13","SEMIMAJOR_AXIS":"6889.035","TIME_SYSTEM":"UTC","COUNTRY_CODE":"US","EPHEMERIS_TYPE":"0","MEAN_ANOMALY":"17.3757","OBJECT_ID":"2020-038AX","OBJECT_NAME":"STARLINK-1488","BSTAR":"0.00130190000000","MEAN_MOTION":"15.18326485","CENTER_NAME":"EARTH","OBJECT_TYPE":"PAYLOAD","MEAN_MOTION_DOT":"0.00026836","MEAN_ELEMENT_THEORY":"SGP4","RA_OF_ASC_NODE":"183.9411","REV_AT_EPOCH":"15993","ELEMENT_SET_NO":"999","APOAPSIS":"513.678"},{"OBJECT_NAME":"STARLINK-1489","OBJECT_ID":"2020-038AY","CENTER_NAME":"EARTH","MEAN_MOTION":"15.06447423","BSTAR":"0.00071022000000","RA_OF_ASC_NODE":"190.3148","MEAN_ELEMENT_THEORY":"SGP4","REV_AT_EPOCH":"15984","MEAN_MOTION_DOT":"0.00010326","OBJECT_TYPE":"PAYLOAD","APOAPSIS":"548.009","ELEMENT_SET_NO":"999","NORAD_CAT_ID":"45776","INCLINATION":"53.0523","ECCENTRICITY":"0.00013590","GP_ID":"231195434","FILE":"3900281","PERIOD":"95.589","MEAN_MOTION_DDOT":"0.0000000000000","DECAY_DATE":null,"CLASSIFICATION_TYPE":"U","EPOCH":"2023-05-03T14:01:55.306560","SITE":"AFETR","RCS_SIZE":"LARGE","PERIAPSIS":"546.127","TLE_LINE2":"2 45776  53.0523 190.3148 0001359  82.7147 277.3997 15.06447423159849","SEMIMAJOR_AXIS":"6925.203","LAUNCH_DATE":"2020-06-13","REF_FRAME":"TEME","TLE_LINE1":"1 45776U 20038AY  23123.58466790  .00010326  00000-0  71022-3 0  9995","ARG_OF_PERICENTER":"82.7147","MEAN_ANOMALY":"277.3997","EPHEMERIS_TYPE":"0","COUNTRY_CODE":"US","TIME_SYSTEM":"UTC"},{"OBJECT_TYPE":"PAYLOAD","MEAN_ELEMENT_THEORY":"SGP4","RA_OF_ASC_NODE":"188.9425","REV_AT_EPOCH":"15985","MEAN_MOTION_DOT":"0.00020358","ELEMENT_SET_NO":"999","APOAPSIS":"535.594","OBJECT_ID":"2020-038AZ","OBJECT_NAME":"STARLINK-1490","BSTAR":"0.00121640000000","CENTER_NAME":"EARTH","MEAN_MOTION":"15.11078329","TLE_LINE1":"1 45777U 20038AZ  23123.46563551  .00020358  00000-0  12164-2 0  9993","ARG_OF_PERICENTER":"46.0527","REF_FRAME":"TEME","LAUNCH_DATE":"2020-06-13","SEMIMAJOR_AXIS":"6911.047","TIME_SYSTEM":"UTC","COUNTRY_CODE":"US","MEAN_ANOMALY":"314.0784","EPHEMERIS_TYPE":"0","EPOCH":"2023-05-03T11:10:30.908064","DECAY_DATE":null,"CLASSIFICATION_TYPE":"U","SITE":"AFETR","RCS_SIZE":"LARGE","PERIOD":"95.296","GP_ID":"231162904","FILE":"3899966","MEAN_MOTION_DDOT":"0.0000000000000","ECCENTRICITY":"0.00038800","NORAD_CAT_ID":"45777","INCLINATION":"53.0526","TLE_LINE2":"2 45777  53.0526 188.9425 0003880  46.0527 314.0784 15.11078329159855","PERIAPSIS":"530.231"},{"TIME_SYSTEM":"UTC","COUNTRY_CODE":"US","EPHEMERIS_TYPE":"0","MEAN_ANOMALY":"262.8690","TLE_LINE1":"1 45778U 20038BA  23123.69523976  .00012000  00000-0  82211-3 0  9992","ARG_OF_PERICENTER":"97.2452","REF_FRAME":"TEME","LAUNCH_DATE":"2020-06-13","SEMIMAJOR_AXIS":"6925.208","TLE_LINE2":"2 45778  53.0539 189.8256 0001345  97.2452 262.8690 15.06445780159849","PERIAPSIS":"546.142","CLASSIFICATION_TYPE":"U","DECAY_DATE":null,"EPOCH":"2023-05-03T16:41:08.715264","SITE":"AFETR","RCS_SIZE":"LARGE","PERIOD":"95.589","GP_ID":"231194434","FILE":"3900281","MEAN_MOTION_DDOT":"0.0000000000000","ECCENTRICITY":"0.00013450","NORAD_CAT_ID":"45778","INCLINATION":"53.0539","ELEMENT_SET_NO":"999","APOAPSIS":"548.005","OBJECT_TYPE":"PAYLOAD","RA_OF_ASC_NODE":"189.8256","MEAN_ELEMENT_THEORY":"SGP4","REV_AT_EPOCH":"15984","MEAN_MOTION_DOT":"0.00012000","BSTAR":"0.00082211000000","CENTER_NAME":"EARTH","MEAN_MOTION":"15.06445780","OBJECT_ID":"2020-038BA","OBJECT_NAME":"STARLINK-1491"},{"OBJECT_ID":"2020-038BB","OBJECT_NAME":"STARLINK-1492","BSTAR":"0.00030248000000","MEAN_MOTION":"15.20461840","CENTER_NAME":"EARTH","OBJECT_TYPE":"PAYLOAD","MEAN_MOTION_DOT":"0.00006368","MEAN_ELEMENT_THEORY":"SGP4","RA_OF_ASC_NODE":"179.5453","REV_AT_EPOCH":"15997","ELEMENT_SET_NO":"999","APOAPSIS":"505.408","SITE":"AFETR","RCS_SIZE":"LARGE","DECAY_DATE":null,"CLASSIFICATION_TYPE":"U","EPOCH":"2023-05-03T11:32:25.792512","MEAN_MOTION_DDOT":"0.0000000000000","FILE":"3899966","GP_ID":"231163886","PERIOD":"94.708","ECCENTRICITY":"0.00013940","INCLINATION":"53.0499","NORAD_CAT_ID":"45779","TLE_LINE2":"2 45779  53.0499 179.5453 0001394 263.0917  96.9919 15.20461840159978","PERIAPSIS":"503.489","ARG_OF_PERICENTER":"263.0917","TLE_LINE1":"1 45779U 20038BB  23123.48085408  .00006368  00000-0  30248-3 0  9996","REF_FRAME":"TEME","LAUNCH_DATE":"2020-06-13","SEMIMAJOR_AXIS":"6882.584","TIME_SYSTEM":"UTC","COUNTRY_CODE":"US","MEAN_ANOMALY":"96.9919","EPHEMERIS_TYPE":"0"}];
